NORAD_CAT_ID,OBJECT_NAME,OBJECT_TYPE,EPOCH,MEAN_MOTION,ECCENTRICITY,INCLINATION,RA_OF_ASC_NODE,ARG_OF_PERICENTER,MEAN_ANOMALY,BSTAR,MEAN_MOTION_DOT,MEAN_MOTION_DDOT,TLE_LINE0,TLE_LINE1,TLE_LINE2,SEMIMAJOR_AXIS,PERIOD,APOGEE,PERIGEE,DECAYED
53268.0,STARLINK-4109,PAYLOAD,2023-05-04 11:40:40,15.08842012,0.0001152,53.2151,183.7733,93.7713,266.3411,0.00013086,1.796e-05,0.0,0 STARLINK-4109,1 53268U 22086AC  23124.48658218  .00001796  00000-0  13086-3 0  9990,2 53268  53.2151 183.7733 0001152  93.7713 266.3411 15.08842012 43858,6917.874,95.437,540.536,538.942,0.0
53268.0,STARLINK-4109,PAYLOAD,2023-05-04 21:12:59,15.08842112,0.0001151,53.2149,181.9891,85.8048,274.3075,6.3737e-05,7.27e-06,0.0,0 STARLINK-4109,1 53268U 22086AC  23124.88402275  .00000727  00000-0  63737-4 0  9996,2 53268  53.2149 181.9891 0001151  85.8048 274.3075 15.08842112 44095,6917.874,95.437,540.535,538.943,0.0
53268.0,STARLINK-4109,PAYLOAD,2023-05-05 21:03:46,15.08843431,0.0001174,53.2143,177.5286,87.1192,272.9934,0.00020316,2.947e-05,0.0,0 STARLINK-4109,1 53268U 22086AC  23125.87762479  .00002947  00000-0  20316-3 0  9992,2 53268  53.2143 177.5286 0001174  87.1192 272.9934 15.08843431 44068,6917.87,95.437,540.547,538.923,0.0
53268.0,STARLINK-4109,PAYLOAD,2023-05-06 08:11:28,15.0884476,0.0001191,53.2142,175.4467,88.4932,271.6196,0.0001647,2.335e-05,0.0,0 STARLINK-4109,1 53268U 22086AC  23126.34130423  .00002335  00000-0  16470-3 0  9990,2 53268  53.2142 175.4467 0001191  88.4932 271.6196 15.08844760 44310,6917.866,95.437,540.555,538.907,0.0
53268.0,STARLINK-4109,PAYLOAD,2023-05-07 09:37:38,15.08848603,0.0001215,53.2144,170.6872,95.4201,264.693,0.0001572,2.215e-05,0.0,0 STARLINK-4109,1 53268U 22086AC  23127.40113946  .00002215  00000-0  15720-3 0  9993,2 53268  53.2144 170.6872 0001215  95.4201 264.6930 15.08848603 44298,6917.854,95.437,540.56,538.879,0.0
53268.0,STARLINK-4109,PAYLOAD,2023-05-08 11:03:49,15.08838012,0.0001125,53.2143,165.9312,98.5808,261.5312,2.95e-05,1.82e-06,0.0,0 STARLINK-4109,1 53268U 22086AC  23128.46098590  .00000182  00000-0  29500-4 0  9990,2 53268  53.2143 165.9312 0001125  98.5808 261.5312 15.08838012 44451,6917.886,95.438,540.53,538.973,0.0
53268.0,STARLINK-4109,PAYLOAD,2023-05-08 19:00:44,15.08838023,0.0001097,53.2139,164.4446,98.1018,262.0099,3.9158e-05,3.35e-06,0.0,0 STARLINK-4109,1 53268U 22086AC  23128.79218656  .00000335  00000-0  39158-4 0  9993,2 53268  53.2139 164.4446 0001097  98.1018 262.0099 15.08838023 44680,6917.886,95.438,540.51,538.993,0.0
53268.0,STARLINK-4109,PAYLOAD,2023-05-09 09:19:12,15.08843203,0.0001102,53.214,161.7681,102.6998,257.4117,8.9078e-05,1.13e-05,0.0,0 STARLINK-4109,1 53268U 22086AC  23129.38834440  .00001130  00000-0  89078-4 0  9994,2 53268  53.2140 161.7681 0001102 102.6998 257.4117 15.08843203 44773,6917.871,95.437,540.498,538.973,0.0
53268.0,STARLINK-4109,PAYLOAD,2023-05-10 09:10:00,15.08829094,0.0001197,53.2143,157.3081,106.1304,253.982,0.00041717,6.356e-05,0.0,0 STARLINK-4109,1 53268U 22086AC  23130.38195468  .00006356  00000-0  41717-3 0  9998,2 53268  53.2143 157.3081 0001197 106.1304 253.9820 15.08829094 44926,6917.914,95.438,540.607,538.951,0.0
53268.0,STARLINK-4109,PAYLOAD,2023-05-10 18:42:19,15.08842719,0.0001106,53.2144,155.5236,98.7459,261.3658,0.00015911,2.246e-05,0.0,0 STARLINK-4109,1 53268U 22086AC  23130.77938794  .00002246  00000-0  15911-3 0  9999,2 53268  53.2144 155.5236 0001106  98.7459 261.3658 15.08842719 44983,6917.872,95.437,540.502,538.972,0.0
53268.0,STARLINK-4109,PAYLOAD,2023-05-11 09:00:47,15.08846797,0.0001107,53.2142,152.8486,92.7671,267.3448,0.00015988,2.258e-05,0.0,0 STARLINK-4109,1 53268U 22086AC  23131.37554560  .00002258  00000-0  15988-3 0  9998,2 53268  53.2142 152.8486 0001107  92.7671 267.3448 15.08846797 45073,6917.86,95.437,540.49,538.959,0.0
53268.0,STARLINK-4109,PAYLOAD,2023-05-11 18:33:06,15.08839829,0.0001154,53.2139,151.0613,79.2728,280.8394,3.8745e-05,3.29e-06,0.0,0 STARLINK-4109,1 53268U 22086AC  23131.77298919  .00000329  00000-0  38745-4 0  9999,2 53268  53.2139 151.0613 0001154  79.2728 280.8394 15.08839829 44951,6917.881,95.438,540.544,538.948,0.0
53268.0,STARLINK-4109,PAYLOAD,2023-05-12 18:23:53,15.08838206,0.0001193,53.2145,146.6003,80.723,279.3897,6.7061e-05,7.8e-06,0.0,0 STARLINK-4109,1 53268U 22086AC  23132.76659368  .00000780  00000-0  67061-4 0  9992,2 53268  53.2145 146.6003 0001193  80.7230 279.3897 15.08838206 45285,6917.886,95.438,540.576,538.926,0.0
53268.0,STARLINK-4109,PAYLOAD,2023-05-13 05:31:35,15.08845802,0.0001201,53.2155,144.5184,80.9381,279.1747,7.6273e-05,9.26e-06,0.0,0 STARLINK-4109,1 53268U 22086AC  23133.23026975  .00000926  00000-0  76273-4 0  9994,2 53268  53.2155 144.5184 0001201  80.9381 279.1747 15.08845802 45172,6917.863,95.437,540.558,538.897,0.0
53268.0,STARLINK-4109,PAYLOAD,2023-05-13 07:06:58,15.08844841,0.0001267,53.2156,144.2222,77.4079,282.7055,9.9945e-05,1.303e-05,0.0,0 STARLINK-4109,1 53268U 22086AC  23133.29651004  .00001303  00000-0  99945-4 0  9998,2 53268  53.2156 144.2222 0001267  77.4079 282.7055 15.08844841 45365,6917.866,95.437,540.607,538.854,0.0
53268.0,STARLINK-4109,PAYLOAD,2023-05-13 18:14:40,15.08845013,0.0001082,53.2152,142.1409,86.1214,273.9902,6.8373e-05,8.01e-06,0.0,0 STARLINK-4109,1 53268U 22086AC  23133.76018890  .00000801  00000-0  68373-4 0  9993,2 53268  53.2152 142.1409 0001082  86.1214 273.9902 15.08845013 45431,6917.865,95.437,540.479,538.982,0.0
53268.0,STARLINK-4109,PAYLOAD,2023-05-14 06:57:45,15.08841247,0.0001131,53.2153,139.7615,78.8508,281.2611,0.00013438,1.852e-05,0.0,0 STARLINK-4109,1 53268U 22086AC  23134.29011131  .00001852  00000-0  13438-3 0  9991,2 53268  53.2153 139.7615 0001131  78.8508 281.2611 15.08841247 45335,6917.877,95.437,540.524,538.959,0.0
53268.0,STARLINK-4109,PAYLOAD,2023-05-15 06:48:32,15.08841827,0.0001184,53.2153,135.3007,81.0921,279.0205,5.6103e-05,6.05e-06,0.0,0 STARLINK-4109,1 53268U 22086AC  23135.28371131  .00000605  00000-0  56103-4 0  9992,2 53268  53.2153 135.3007 0001184  81.0921 279.0205 15.08841827 45669,6917.875,95.437,540.559,538.921,0.0
53268.0,STARLINK-4109,PAYLOAD,2023-05-16 06:39:19,15.08839168,0.00012,53.2154,130.8402,80.9066,279.2062,3.1704e-05,2.17e-06,0.0,0 STARLINK-4109,1 53268U 22086AC  23136.27731368  .00000217  00000-0  31704-4 0  9993,2 53268  53.2154 130.8402 0001200  80.9066 279.2062 15.08839168 45631,6917.883,95.438,540.578,538.918,0.0
53268.0,STARLINK-4109,PAYLOAD,2023-05-17 09:40:53,15.0883981,0.0001213,53.2157,125.786,86.6446,273.4685,6.1819e-05,6.96e-06,0.0,0 STARLINK-4109,1 53268U 22086AC  23137.40339284  .00000696  00000-0  61819-4 0  9991,2 53268  53.2157 125.7860 0001213  86.6446 273.4685 15.08839810 45804,6917.881,95.438,540.585,538.907,0.0
53268.0,STARLINK-4109,PAYLOAD,2023-05-17 16:02:25,15.08835835,0.0001158,53.2152,124.5958,84.3311,275.7813,4.5014e-05,4.29e-06,0.0,0 STARLINK-4109,1 53268U 22086AC  23137.66835615  .00000429  00000-0  45014-4 0  9991,2 53268  53.2152 124.5958 0001158  84.3311 275.7813 15.08835835 46024,6917.893,95.438,540.559,538.957,0.0
53268.0,STARLINK-4109,PAYLOAD,2023-05-18 06:20:54,15.08836683,0.000116,53.2153,121.9194,83.6012,276.5112,3.9695e-05,3.44e-06,0.0,0 STARLINK-4109,1 53268U 22086AC  23138.26451683  .00000344  00000-0  39695-4 0  9991,2 53268  53.2153 121.9194 0001160  83.6012 276.5112 15.08836683 45933,6917.891,95.438,540.558,538.953,0.0
53268.0,STARLINK-4109,PAYLOAD,2023-05-18 22:14:45,15.0883908,0.000115,53.2154,118.9457,89.0586,271.0538,4.1477e-05,3.72e-06,0.0,0 STARLINK-4109,1 53268U 22086AC  23138.92691617  .00000372  00000-0  41477-4 0  9999,2 53268  53.2154 118.9457 0001150  89.0586 271.0538 15.08839080 46215,6917.883,95.438,540.544,538.953,0.0
53268.0,STARLINK-4109,PAYLOAD,2023-05-19 07:47:04,15.08841746,0.0001166,53.2158,117.1615,88.4598,271.6528,5.6944e-05,6.19e-06,0.0,0 STARLINK-4109,1 53268U 22086AC  23139.32435440  .00000619  00000-0  56944-4 0  9993,2 53268  53.2158 117.1615 0001166  88.4598 271.6528 15.08841746 46092,6917.875,95.437,540.547,538.933,0.0
53268.0,STARLINK-4109,PAYLOAD,2023-05-19 15:44:00,15.08838351,0.0001174,53.2158,115.6745,87.835,272.2776,3.5062e-05,2.7e-06,0.0,0 STARLINK-4109,1 53268U 22086AC  23139.65555723  .00000270  00000-0  35062-4 0  9997,2 53268  53.2158 115.6745 0001174  87.8350 272.2776 15.08838351 46323,6917.885,95.438,540.563,538.938,0.0
53268.0,STARLINK-4109,PAYLOAD,2023-05-20 15:34:46,15.08846514,0.0001244,53.2165,111.2138,89.0238,271.0897,0.00011147,1.487e-05,0.0,0 STARLINK-4109,1 53268U 22086AC  23140.64915060  .00001487  00000-0  11147-3 0  9990,2 53268  53.2165 111.2138 0001244  89.0238 271.0897 15.08846514 46293,6917.86,95.437,540.586,538.865,0.0
53268.0,STARLINK-4109,PAYLOAD,2023-05-21 07:28:37,15.08854581,0.000122,53.2158,108.239,94.6178,265.4953,0.0001468,2.05e-05,0.0,0 STARLINK-4109,1 53268U 22086AC  23141.31154163  .00002050  00000-0  14680-3 0  9996,2 53268  53.2158 108.2390 0001220  94.6178 265.4953 15.08854581 46574,6917.836,95.437,540.545,538.857,0.0
53268.0,STARLINK-4109,PAYLOAD,2023-05-21 15:25:34,15.08837239,0.0001453,53.2164,106.7523,99.3742,260.7415,1.72e-05,-1.4e-07,0.0,0 STARLINK-4109,1 53268U 22086AC  23141.64275644 -.00000014  00000-0  17200-4 0  9991,2 53268  53.2164 106.7523 0001453  99.3742 260.7415 15.08837239 46447,6917.889,95.438,540.759,538.749,0.0
53268.0,STARLINK-4109,PAYLOAD,2023-05-21 21:47:06,15.08835218,0.0001688,53.2152,105.5635,98.0908,262.0276,2.19e-05,6e-07,0.0,0 STARLINK-4109,1 53268U 22086AC  23141.90771965  .00000060  00000-0  21900-4 0  9999,2 53268  53.2152 105.5635 0001688  98.0908 262.0276 15.08835218 46664,6917.895,95.438,540.928,538.592,0.0
53268.0,STARLINK-4109,PAYLOAD,2023-05-22 04:08:39,15.08832801,0.0001607,53.2183,104.3754,98.0908,262.0266,-1.4444e-05,-5.18e-06,0.0,0 STARLINK-4109,1 53268U 22086AC  23142.17268424 -.00000518  00000-0 -14444-4 0  9995,2 53268  53.2183 104.3754 0001607  98.0908 262.0266 15.08832801 46527,6917.902,95.438,540.879,538.656,0.0
